IONOSFERA-M 1           
1 61735U 24199A   26073.60483444  .00000050  00000+0  41871-4 0  9997
2 61735  98.7319 307.7058 0002039  69.3889 290.7508 14.22736191114258
IONOSFERA-M 2           
1 61736U 24199B   26073.63932606  .00000063  00000+0  48015-4 0  9991
2 61736  98.7318 307.6515 0000500 134.3190 225.8030 14.22738874117380
BIOMASS                 
1 63772U 25090A   26073.53009147  .00000439  00000+0  85951-4 0  9995
2 63772  98.0740 262.2100 0001335  85.1309 275.0048 14.67538041 46809
GOSAT-GW (IBUKI GW)     
1 64694U 25141A   26065.03170321  .00001373  00000+0  25032-3 0  9996
2 64694  98.0504   4.0681 0001432  83.7436 276.3932 14.67569112 36718
IONOSFERA-M 3           
1 64876U 25155A   26073.64277887  .00000082  00000+0  56964-4 0  9999
2 64876  98.5930  37.9791 0002261 110.4617 249.6803 14.21467883 32971
IONOSFERA-M 4           
1 64877U 25155B   26073.60736227  .00000077  00000+0  54801-4 0  9996
2 64877  98.5926  37.8630 0001778  98.2692 261.8688 14.21469656 32962
MICROCARB               
1 64899U 25156A   26073.47699742  .00000727  00000+0  12303-3 0  9998
2 64899  97.9880 152.2958 0015757 210.8531 149.1751 14.72210813 34033
CO3D 3                  
1 64900U 25156B   26073.60028810  .00006769  00000+0  31541-3 0  9995
2 64900  97.4330 153.6513 0001710 128.8430 231.2958 15.20214816 35161
CO3D 4                  
1 64901U 25156C   26073.60043829  .00007155  00000+0  33318-3 0  9997
2 64901  97.4331 153.6515 0000591 195.6653 164.4564 15.20217942 35163
CO3D 2                  
1 64902U 25156D   26073.56710186  .00005217  00000+0  24393-3 0  9990
2 64902  97.4330 153.5177 0001515 109.7957 250.3442 15.20204042 35152
CO3D 1                  
1 64903U 25156E   26073.63307506  .00007851  00000+0  36528-3 0  9996
2 64903  97.4331 153.5825 0001370 119.2549 240.8823 15.20212384 35162
SENTINEL-6B             
1 66514U 25264A   26073.45782324 -.00000048  00000+0  56065-4 0  9992
2 66514  66.0436 331.9362 0007893 270.7299  89.2812 12.80929694 15038
CSG-3                   
1 67304U 26001A   26073.61677704  .00000545  00000+0  74996-4 0  9997
2 67304  97.8870 258.5832 0001409  86.9404 273.1970 14.82155142 10451
