[{"OBJECT_NAME":"IONOSFERA-M 1","OBJECT_ID":"2024-199A","EPOCH":"2026-03-14T14:30:57.695616","MEAN_MOTION":14.22736191,"ECCENTRICITY":0.00020396,"INCLINATION":98.7319,"RA_OF_ASC_NODE":307.7058,"ARG_OF_PERICENTER":69.3889,"MEAN_ANOMALY":290.7508,"EPHEMERIS_TYPE":0,"CLASSIFICATION_TYPE":"U","NORAD_CAT_ID":61735,"ELEMENT_SET_NO":999,"REV_AT_EPOCH":11425,"BSTAR":4.1870914e-5,"MEAN_MOTION_DOT":5.0e-7,"MEAN_MOTION_DDOT":0},{"OBJECT_NAME":"IONOSFERA-M 2","OBJECT_ID":"2024-199B","EPOCH":"2026-03-14T15:20:37.771584","MEAN_MOTION":14.22738874,"ECCENTRICITY":5.003e-5,"INCLINATION":98.7318,"RA_OF_ASC_NODE":307.6515,"ARG_OF_PERICENTER":134.319,"MEAN_ANOMALY":225.803,"EPHEMERIS_TYPE":0,"CLASSIFICATION_TYPE":"U","NORAD_CAT_ID":61736,"ELEMENT_SET_NO":999,"REV_AT_EPOCH":11738,"BSTAR":4.801489e-5,"MEAN_MOTION_DOT":6.3e-7,"MEAN_MOTION_DDOT":0},{"OBJECT_NAME":"BIOMASS","OBJECT_ID":"2025-090A","EPOCH":"2026-03-14T12:43:19.903008","MEAN_MOTION":14.67538041,"ECCENTRICITY":0.00013357,"INCLINATION":98.074,"RA_OF_ASC_NODE":262.21,"ARG_OF_PERICENTER":85.1309,"MEAN_ANOMALY":275.0048,"EPHEMERIS_TYPE":0,"CLASSIFICATION_TYPE":"U","NORAD_CAT_ID":63772,"ELEMENT_SET_NO":999,"REV_AT_EPOCH":4680,"BSTAR":8.595073e-5,"MEAN_MOTION_DOT":4.39e-6,"MEAN_MOTION_DDOT":0},{"OBJECT_NAME":"GOSAT-GW (IBUKI GW)","OBJECT_ID":"2025-141A","EPOCH":"2026-03-06T00:45:39.157344","MEAN_MOTION":14.67569112,"ECCENTRICITY":0.00014325,"INCLINATION":98.0504,"RA_OF_ASC_NODE":4.0681,"ARG_OF_PERICENTER":83.7436,"MEAN_ANOMALY":276.3932,"EPHEMERIS_TYPE":0,"CLASSIFICATION_TYPE":"U","NORAD_CAT_ID":64694,"ELEMENT_SET_NO":999,"REV_AT_EPOCH":3671,"BSTAR":0.00025031569,"MEAN_MOTION_DOT":1.373e-5,"MEAN_MOTION_DDOT":0},{"OBJECT_NAME":"IONOSFERA-M 3","OBJECT_ID":"2025-155A","EPOCH":"2026-03-14T15:25:36.094368","MEAN_MOTION":14.21467883,"ECCENTRICITY":0.00022617,"INCLINATION":98.593,"RA_OF_ASC_NODE":37.9791,"ARG_OF_PERICENTER":110.4617,"MEAN_ANOMALY":249.6803,"EPHEMERIS_TYPE":0,"CLASSIFICATION_TYPE":"U","NORAD_CAT_ID":64876,"ELEMENT_SET_NO":999,"REV_AT_EPOCH":3297,"BSTAR":5.696399e-5,"MEAN_MOTION_DOT":8.2e-7,"MEAN_MOTION_DDOT":0},{"OBJECT_NAME":"IONOSFERA-M 4","OBJECT_ID":"2025-155B","EPOCH":"2026-03-14T14:34:36.100128","MEAN_MOTION":14.21469656,"ECCENTRICITY":0.0001778,"INCLINATION":98.5926,"RA_OF_ASC_NODE":37.863,"ARG_OF_PERICENTER":98.2692,"MEAN_ANOMALY":261.8688,"EPHEMERIS_TYPE":0,"CLASSIFICATION_TYPE":"U","NORAD_CAT_ID":64877,"ELEMENT_SET_NO":999,"REV_AT_EPOCH":3296,"BSTAR":5.4801334e-5,"MEAN_MOTION_DOT":7.7e-7,"MEAN_MOTION_DDOT":0},{"OBJECT_NAME":"MICROCARB","OBJECT_ID":"2025-156A","EPOCH":"2026-03-14T11:26:52.577088","MEAN_MOTION":14.72210813,"ECCENTRICITY":0.00157577,"INCLINATION":97.988,"RA_OF_ASC_NODE":152.2958,"ARG_OF_PERICENTER":210.8531,"MEAN_ANOMALY":149.1751,"EPHEMERIS_TYPE":0,"CLASSIFICATION_TYPE":"U","NORAD_CAT_ID":64899,"ELEMENT_SET_NO":999,"REV_AT_EPOCH":3403,"BSTAR":0.00012303479,"MEAN_MOTION_DOT":7.27e-6,"MEAN_MOTION_DDOT":0},{"OBJECT_NAME":"CO3D 3","OBJECT_ID":"2025-156B","EPOCH":"2026-03-14T14:24:24.891840","MEAN_MOTION":15.20214816,"ECCENTRICITY":0.00017107,"INCLINATION":97.433,"RA_OF_ASC_NODE":153.6513,"ARG_OF_PERICENTER":128.843,"MEAN_ANOMALY":231.2958,"EPHEMERIS_TYPE":0,"CLASSIFICATION_TYPE":"U","NORAD_CAT_ID":64900,"ELEMENT_SET_NO":999,"REV_AT_EPOCH":3516,"BSTAR":0.00031540822,"MEAN_MOTION_DOT":6.769e-5,"MEAN_MOTION_DDOT":0},{"OBJECT_NAME":"CO3D 4","OBJECT_ID":"2025-156C","EPOCH":"2026-03-14T14:24:37.868256","MEAN_MOTION":15.20217942,"ECCENTRICITY":5.913e-5,"INCLINATION":97.4331,"RA_OF_ASC_NODE":153.6515,"ARG_OF_PERICENTER":195.6653,"MEAN_ANOMALY":164.4564,"EPHEMERIS_TYPE":0,"CLASSIFICATION_TYPE":"U","NORAD_CAT_ID":64901,"ELEMENT_SET_NO":999,"REV_AT_EPOCH":3516,"BSTAR":0.00033317683,"MEAN_MOTION_DOT":7.155e-5,"MEAN_MOTION_DDOT":0},{"OBJECT_NAME":"CO3D 2","OBJECT_ID":"2025-156D","EPOCH":"2026-03-14T13:36:37.600704","MEAN_MOTION":15.20204042,"ECCENTRICITY":0.00015154,"INCLINATION":97.433,"RA_OF_ASC_NODE":153.5177,"ARG_OF_PERICENTER":109.7957,"MEAN_ANOMALY":250.3442,"EPHEMERIS_TYPE":0,"CLASSIFICATION_TYPE":"U","NORAD_CAT_ID":64902,"ELEMENT_SET_NO":999,"REV_AT_EPOCH":3515,"BSTAR":0.00024392885,"MEAN_MOTION_DOT":5.217e-5,"MEAN_MOTION_DDOT":0},{"OBJECT_NAME":"CO3D 1","OBJECT_ID":"2025-156E","EPOCH":"2026-03-14T15:11:37.685184","MEAN_MOTION":15.20212384,"ECCENTRICITY":0.00013701,"INCLINATION":97.4331,"RA_OF_ASC_NODE":153.5825,"ARG_OF_PERICENTER":119.2549,"MEAN_ANOMALY":240.8823,"EPHEMERIS_TYPE":0,"CLASSIFICATION_TYPE":"U","NORAD_CAT_ID":64903,"ELEMENT_SET_NO":999,"REV_AT_EPOCH":3516,"BSTAR":0.00036527928,"MEAN_MOTION_DOT":7.851e-5,"MEAN_MOTION_DDOT":0},{"OBJECT_NAME":"SENTINEL-6B","OBJECT_ID":"2025-264A","EPOCH":"2026-03-14T10:59:15.927936","MEAN_MOTION":12.80929694,"ECCENTRICITY":0.00078933,"INCLINATION":66.0436,"RA_OF_ASC_NODE":331.9362,"ARG_OF_PERICENTER":270.7299,"MEAN_ANOMALY":89.2812,"EPHEMERIS_TYPE":0,"CLASSIFICATION_TYPE":"U","NORAD_CAT_ID":66514,"ELEMENT_SET_NO":999,"REV_AT_EPOCH":1503,"BSTAR":5.6065368e-5,"MEAN_MOTION_DOT":-4.8e-7,"MEAN_MOTION_DDOT":0},{"OBJECT_NAME":"CSG-3","OBJECT_ID":"2026-001A","EPOCH":"2026-03-14T14:48:09.536256","MEAN_MOTION":14.82155142,"ECCENTRICITY":0.00014091,"INCLINATION":97.887,"RA_OF_ASC_NODE":258.5832,"ARG_OF_PERICENTER":86.9404,"MEAN_ANOMALY":273.197,"EPHEMERIS_TYPE":0,"CLASSIFICATION_TYPE":"U","NORAD_CAT_ID":67304,"ELEMENT_SET_NO":999,"REV_AT_EPOCH":1045,"BSTAR":7.4995862e-5,"MEAN_MOTION_DOT":5.45e-6,"MEAN_MOTION_DDOT":0}]
